[{"OBJECT_NAME":"ONEWEB-0525","OBJECT_ID":"2022-138AG","EPOCH":"2026-03-09T18:22:28.913088","MEAN_MOTION":13.19725056,"ECCENTRICITY":0.00017127,"INCLINATION":87.9231,"RA_OF_ASC_NODE":324.7724,"ARG_OF_PERICENTER":90.0733,"MEAN_ANOMALY":270.0596,"EPHEMERIS_TYPE":0,"CLASSIFICATION_TYPE":"U","NORAD_CAT_ID":54143,"ELEMENT_SET_NO":999,"REV_AT_EPOCH":16371,"BSTAR":-0.00047346633,"MEAN_MOTION_DOT":-1.77e-6,"MEAN_MOTION_DDOT":0},{"OBJECT_NAME":"COSMOS 2251 DEB","OBJECT_ID":"1993-036DT","EPOCH":"2026-03-09T20:48:19.887840","MEAN_MOTION":13.72114793,"ECCENTRICITY":0.03036526,"INCLINATION":74.0885,"RA_OF_ASC_NODE":231.4855,"ARG_OF_PERICENTER":314.1397,"MEAN_ANOMALY":162.9879,"EPHEMERIS_TYPE":0,"CLASSIFICATION_TYPE":"U","NORAD_CAT_ID":33914,"ELEMENT_SET_NO":999,"REV_AT_EPOCH":85276,"BSTAR":0.00047012371,"MEAN_MOTION_DOT":5.7e-6,"MEAN_MOTION_DDOT":0}]
